{"fetched_at":"2026-07-14T17:40:26.806Z","source":"https://celestrak.org/NORAD/elements/gp.php?GROUP=qianfan&FORMAT=JSON","constellation":"qianfan","records":[{"OBJECT_NAME":"QIANFAN-113","OBJECT_ID":"2026-075E","EPOCH":"2026-07-14T04:19:20.499168","CLASSIFICATION_TYPE":"U","MEAN_MOTION":13.5101829,"ECCENTRICITY":0.0001964,"INCLINATION":88.9918,"RA_OF_ASC_NODE":318.2406,"ARG_OF_PERICENTER":106.3183,"MEAN_ANOMALY":253.8185,"EPHEMERIS_TYPE":0,"NORAD_CAT_ID":68640,"ELEMENT_SET_NO":999,"REV_AT_EPOCH":1345,"BSTAR":0.000083333,"MEAN_MOTION_DOT":6.6e-7,"MEAN_MOTION_DDOT":0},{"OBJECT_NAME":"QIANFAN-114","OBJECT_ID":"2026-075F","EPOCH":"2026-07-14T04:31:08.296608","CLASSIFICATION_TYPE":"U","MEAN_MOTION":13.51017059,"ECCENTRICITY":0.0002042,"INCLINATION":88.9913,"RA_OF_ASC_NODE":318.2576,"ARG_OF_PERICENTER":103.8509,"MEAN_ANOMALY":256.2869,"EPHEMERIS_TYPE":0,"NORAD_CAT_ID":68641,"ELEMENT_SET_NO":999,"REV_AT_EPOCH":1344,"BSTAR":0.00009045,"MEAN_MOTION_DOT":7e-7,"MEAN_MOTION_DDOT":0},{"OBJECT_NAME":"QIANFAN-115","OBJECT_ID":"2026-075G","EPOCH":"2026-07-14T03:25:50.594016","CLASSIFICATION_TYPE":"U","MEAN_MOTION":13.51013807,"ECCENTRICITY":0.000217,"INCLINATION":88.9913,"RA_OF_ASC_NODE":318.2695,"ARG_OF_PERICENTER":107.003,"MEAN_ANOMALY":253.1359,"EPHEMERIS_TYPE":0,"NORAD_CAT_ID":68642,"ELEMENT_SET_NO":999,"REV_AT_EPOCH":1343,"BSTAR":0.000071856,"MEAN_MOTION_DOT":5.8e-7,"MEAN_MOTION_DDOT":0},{"OBJECT_NAME":"QIANFAN-116","OBJECT_ID":"2026-075H","EPOCH":"2026-07-14T03:08:04.488864","CLASSIFICATION_TYPE":"U","MEAN_MOTION":13.5101435,"ECCENTRICITY":0.0001926,"INCLINATION":88.9906,"RA_OF_ASC_NODE":318.2288,"ARG_OF_PERICENTER":113.6326,"MEAN_ANOMALY":246.5027,"EPHEMERIS_TYPE":0,"NORAD_CAT_ID":68643,"ELEMENT_SET_NO":999,"REV_AT_EPOCH":1344,"BSTAR":0.000075491,"MEAN_MOTION_DOT":6.1e-7,"MEAN_MOTION_DDOT":0},{"OBJECT_NAME":"QIANFAN-117","OBJECT_ID":"2026-075J","EPOCH":"2026-07-14T04:36:56.802240","CLASSIFICATION_TYPE":"U","MEAN_MOTION":13.51024263,"ECCENTRICITY":0.0002109,"INCLINATION":88.9911,"RA_OF_ASC_NODE":318.2394,"ARG_OF_PERICENTER":110.5663,"MEAN_ANOMALY":249.5715,"EPHEMERIS_TYPE":0,"NORAD_CAT_ID":68644,"ELEMENT_SET_NO":999,"REV_AT_EPOCH":1345,"BSTAR":0.000075016,"MEAN_MOTION_DOT":6e-7,"MEAN_MOTION_DDOT":0},{"OBJECT_NAME":"QIANFAN-118","OBJECT_ID":"2026-075K","EPOCH":"2026-07-13T13:24:29.957184","CLASSIFICATION_TYPE":"U","MEAN_MOTION":13.51013822,"ECCENTRICITY":0.00018293,"INCLINATION":88.9913,"RA_OF_ASC_NODE":318.3133,"ARG_OF_PERICENTER":100.2868,"MEAN_ANOMALY":259.8489,"EPHEMERIS_TYPE":0,"NORAD_CAT_ID":68645,"ELEMENT_SET_NO":999,"REV_AT_EPOCH":1336,"BSTAR":-0.00010690259,"MEAN_MOTION_DOT":-5.7e-7,"MEAN_MOTION_DDOT":0},{"OBJECT_NAME":"QIANFAN-119","OBJECT_ID":"2026-075L","EPOCH":"2026-07-13T14:35:40.713504","CLASSIFICATION_TYPE":"U","MEAN_MOTION":13.51020353,"ECCENTRICITY":0.00021956,"INCLINATION":88.9915,"RA_OF_ASC_NODE":318.3039,"ARG_OF_PERICENTER":112.616,"MEAN_ANOMALY":247.5223,"EPHEMERIS_TYPE":0,"NORAD_CAT_ID":68646,"ELEMENT_SET_NO":999,"REV_AT_EPOCH":1337,"BSTAR":0.000065319173,"MEAN_MOTION_DOT":5.4e-7,"MEAN_MOTION_DDOT":0},{"OBJECT_NAME":"QIANFAN-120","OBJECT_ID":"2026-075M","EPOCH":"2026-07-13T13:06:58.016448","CLASSIFICATION_TYPE":"U","MEAN_MOTION":13.51020781,"ECCENTRICITY":0.00023449,"INCLINATION":88.9917,"RA_OF_ASC_NODE":318.2957,"ARG_OF_PERICENTER":113.1641,"MEAN_ANOMALY":246.9757,"EPHEMERIS_TYPE":0,"NORAD_CAT_ID":68647,"ELEMENT_SET_NO":999,"REV_AT_EPOCH":1337,"BSTAR":0.000069508612,"MEAN_MOTION_DOT":5.7e-7,"MEAN_MOTION_DDOT":0},{"OBJECT_NAME":"QIANFAN-121","OBJECT_ID":"2026-075N","EPOCH":"2026-07-13T13:42:19.153728","CLASSIFICATION_TYPE":"U","MEAN_MOTION":13.51012885,"ECCENTRICITY":0.00020366,"INCLINATION":88.9915,"RA_OF_ASC_NODE":318.2975,"ARG_OF_PERICENTER":101.838,"MEAN_ANOMALY":258.2999,"EPHEMERIS_TYPE":0,"NORAD_CAT_ID":68648,"ELEMENT_SET_NO":999,"REV_AT_EPOCH":1337,"BSTAR":0.000073585228,"MEAN_MOTION_DOT":6e-7,"MEAN_MOTION_DDOT":0},{"OBJECT_NAME":"QIANFAN-122","OBJECT_ID":"2026-075P","EPOCH":"2026-07-13T13:30:38.923200","CLASSIFICATION_TYPE":"U","MEAN_MOTION":13.51016551,"ECCENTRICITY":0.00021102,"INCLINATION":88.9914,"RA_OF_ASC_NODE":318.2962,"ARG_OF_PERICENTER":112.7956,"MEAN_ANOMALY":247.3419,"EPHEMERIS_TYPE":0,"NORAD_CAT_ID":68649,"ELEMENT_SET_NO":999,"REV_AT_EPOCH":1336,"BSTAR":0.000078733399,"MEAN_MOTION_DOT":6.3e-7,"MEAN_MOTION_DDOT":0},{"OBJECT_NAME":"QIANFAN-123","OBJECT_ID":"2026-075Q","EPOCH":"2026-07-13T14:29:57.285600","CLASSIFICATION_TYPE":"U","MEAN_MOTION":13.51014943,"ECCENTRICITY":0.00022002,"INCLINATION":88.991,"RA_OF_ASC_NODE":318.2812,"ARG_OF_PERICENTER":118.0158,"MEAN_ANOMALY":242.1216,"EPHEMERIS_TYPE":0,"NORAD_CAT_ID":68650,"ELEMENT_SET_NO":999,"REV_AT_EPOCH":1335,"BSTAR":0.000072290264,"MEAN_MOTION_DOT":5.9e-7,"MEAN_MOTION_DDOT":0},{"OBJECT_NAME":"QIANFAN-124","OBJECT_ID":"2026-075R","EPOCH":"2026-07-13T13:18:48.379968","CLASSIFICATION_TYPE":"U","MEAN_MOTION":13.51016103,"ECCENTRICITY":0.00021137,"INCLINATION":88.9913,"RA_OF_ASC_NODE":318.2958,"ARG_OF_PERICENTER":114.7708,"MEAN_ANOMALY":245.3664,"EPHEMERIS_TYPE":0,"NORAD_CAT_ID":68651,"ELEMENT_SET_NO":999,"REV_AT_EPOCH":1337,"BSTAR":0.000075010487,"MEAN_MOTION_DOT":6e-7,"MEAN_MOTION_DDOT":0},{"OBJECT_NAME":"QIANFAN-125","OBJECT_ID":"2026-075S","EPOCH":"2026-07-13T13:36:24.277824","CLASSIFICATION_TYPE":"U","MEAN_MOTION":13.51013088,"ECCENTRICITY":0.00020062,"INCLINATION":88.9913,"RA_OF_ASC_NODE":318.2967,"ARG_OF_PERICENTER":101.9665,"MEAN_ANOMALY":258.1711,"EPHEMERIS_TYPE":0,"NORAD_CAT_ID":68652,"ELEMENT_SET_NO":999,"REV_AT_EPOCH":1337,"BSTAR":0.000072953916,"MEAN_MOTION_DOT":5.9e-7,"MEAN_MOTION_DDOT":0},{"OBJECT_NAME":"QIANFAN-126","OBJECT_ID":"2026-075T","EPOCH":"2026-07-13T13:48:22.453632","CLASSIFICATION_TYPE":"U","MEAN_MOTION":13.5101819,"ECCENTRICITY":0.00022177,"INCLINATION":88.9917,"RA_OF_ASC_NODE":318.2626,"ARG_OF_PERICENTER":117.7404,"MEAN_ANOMALY":242.3973,"EPHEMERIS_TYPE":0,"NORAD_CAT_ID":68653,"ELEMENT_SET_NO":999,"REV_AT_EPOCH":1339,"BSTAR":0.000056772866,"MEAN_MOTION_DOT":4.9e-7,"MEAN_MOTION_DDOT":0},{"OBJECT_NAME":"QIANFAN-127","OBJECT_ID":"2026-104A","EPOCH":"2026-07-14T05:02:48.592032","CLASSIFICATION_TYPE":"U","MEAN_MOTION":13.57855626,"ECCENTRICITY":0.0009419,"INCLINATION":88.9911,"RA_OF_ASC_NODE":338.7118,"ARG_OF_PERICENTER":9.4732,"MEAN_ANOMALY":350.6599,"EPHEMERIS_TYPE":0,"NORAD_CAT_ID":69073,"ELEMENT_SET_NO":999,"REV_AT_EPOCH":880,"BSTAR":0.000015018,"MEAN_MOTION_DOT":2.3e-7,"MEAN_MOTION_DDOT":0},{"OBJECT_NAME":"QIANFAN-128","OBJECT_ID":"2026-104B","EPOCH":"2026-07-14T04:39:09.821952","CLASSIFICATION_TYPE":"U","MEAN_MOTION":13.56815234,"ECCENTRICITY":0.0009703,"INCLINATION":88.9893,"RA_OF_ASC_NODE":338.746,"ARG_OF_PERICENTER":13.3216,"MEAN_ANOMALY":346.8193,"EPHEMERIS_TYPE":0,"NORAD_CAT_ID":69074,"ELEMENT_SET_NO":999,"REV_AT_EPOCH":878,"BSTAR":-0.000015418,"MEAN_MOTION_DOT":1e-8,"MEAN_MOTION_DDOT":0}]}
